STARLINK-5274           
1 55395U 23014E   26063.44350378  .00000239  00000+0  27797-4 0  9997
2 55395  69.9994  77.5142 0003264 267.4670  92.6115 14.98329565171272
STARLINK-5283           
1 55396U 23014F   26063.44767728  .00000250  00000+0  28759-4 0  9991
2 55396  69.9994  77.5391 0003266 270.7665  89.3120 14.98331853171274
STARLINK-5224           
1 55397U 23014G   26063.40991530  .00000085  00000+0  14956-4 0  9998
2 55397  70.0005  57.9231 0003001 266.8688  93.2128 14.98329631171750
STARLINK-5275           
1 55398U 23014H   26063.46437560 -.00000632  00000+0 -45207-4 0  9996
2 55398  69.9993  77.5951 0002952 275.7537  84.3286 14.98335485171274
STARLINK-5276           
1 55399U 23014J   26063.45602416  .00000484  00000+0  48317-4 0  9998
2 55399  69.9991  77.5667 0003365 269.0767  91.0006 14.98333062171271
STARLINK-5632           
1 55400U 23014K   26063.47272846 -.00000259  00000+0 -13893-4 0  9996
2 55400  69.9993  77.6202 0003196 270.2314  89.8479 14.98328484171277
STARLINK-5076           
1 55401U 23014L   26063.46019625  .00001096  00000+0  99650-4 0  9993
2 55401  69.9990  77.5811 0003366 270.0991  89.9782 14.98333752171270
STARLINK-5071           
1 55402U 23014M   26063.41431244 -.00000005  00000+0  73934-5 0  9992
2 55402  69.9993  77.8235 0003066 267.5708  92.5100 14.98331889171263
STARLINK-5597           
1 55403U 23014N   26063.40178661  .00000535  00000+0  52591-4 0  9995
2 55403  69.9993  77.7787 0003516 266.4205  93.6552 14.98335094171260
STARLINK-5607           
1 55404U 23014P   26063.42266064  .00000178  00000+0  22752-4 0  9992
2 55404  69.9992  77.8532 0003633 269.3655  90.7088 14.98332379171265
STARLINK-5623           
1 55405U 23014Q   26063.41013816  .00000240  00000+0  27899-4 0  9994
2 55405  69.9997  77.8088 0003158 267.8048  92.2749 14.98329859171268
STARLINK-5630           
1 55406U 23014R   26063.42682977  .00000422  00000+0  43136-4 0  9990
2 55406  69.9992  77.8690 0003183 268.6948  91.3846 14.98336120171266
STARLINK-5019           
1 55407U 23014S   26063.41848673  .00003010  00000+0  26005-3 0  9998
2 55407  69.9996  77.8377 0003819 272.3155  87.7567 14.98318230171262
STARLINK-5092           
1 55408U 23014T   26063.58335648  .00958174  00000+0  29918-2 0  9995
2 55408  69.9983  66.6183 0003323 271.6595 183.9067 15.89144164  5792
STARLINK-5633           
1 55410U 23014V   26063.46459736  .00000815  00000+0  76046-4 0  9996
2 55410  69.9990  97.4675 0003412 265.7237  94.3532 14.98343678170781
STARLINK-5605           
1 55411U 23014W   26063.43518937  .00001956  00000+0  17168-3 0  9999
2 55411  69.9992  77.8991 0003381 266.8899  93.1873 14.98331262171263
