[{"OBJECT_NAME":"STARLINK-5274","OBJECT_ID":"2023-014E","EPOCH":"2026-03-04T10:38:38.726592","MEAN_MOTION":14.98329565,"ECCENTRICITY":0.00032649,"INCLINATION":69.9994,"RA_OF_ASC_NODE":77.5142,"ARG_OF_PERICENTER":267.467,"MEAN_ANOMALY":92.6115,"EPHEMERIS_TYPE":0,"CLASSIFICATION_TYPE":"U","NORAD_CAT_ID":55395,"ELEMENT_SET_NO":999,"REV_AT_EPOCH":17127,"BSTAR":2.779737e-5,"MEAN_MOTION_DOT":2.39e-6,"MEAN_MOTION_DDOT":0},{"OBJECT_NAME":"STARLINK-5283","OBJECT_ID":"2023-014F","EPOCH":"2026-03-04T10:44:39.316992","MEAN_MOTION":14.98331853,"ECCENTRICITY":0.00032662,"INCLINATION":69.9994,"RA_OF_ASC_NODE":77.5391,"ARG_OF_PERICENTER":270.7665,"MEAN_ANOMALY":89.312,"EPHEMERIS_TYPE":0,"CLASSIFICATION_TYPE":"U","NORAD_CAT_ID":55396,"ELEMENT_SET_NO":999,"REV_AT_EPOCH":17127,"BSTAR":2.8759396e-5,"MEAN_MOTION_DOT":2.5e-6,"MEAN_MOTION_DDOT":0},{"OBJECT_NAME":"STARLINK-5224","OBJECT_ID":"2023-014G","EPOCH":"2026-03-04T09:50:16.681920","MEAN_MOTION":14.98329631,"ECCENTRICITY":0.0003001,"INCLINATION":70.0005,"RA_OF_ASC_NODE":57.9231,"ARG_OF_PERICENTER":266.8688,"MEAN_ANOMALY":93.2128,"EPHEMERIS_TYPE":0,"CLASSIFICATION_TYPE":"U","NORAD_CAT_ID":55397,"ELEMENT_SET_NO":999,"REV_AT_EPOCH":17175,"BSTAR":1.4956181e-5,"MEAN_MOTION_DOT":8.5e-7,"MEAN_MOTION_DDOT":0},{"OBJECT_NAME":"STARLINK-5275","OBJECT_ID":"2023-014H","EPOCH":"2026-03-04T11:08:42.051840","MEAN_MOTION":14.98335485,"ECCENTRICITY":0.00029524,"INCLINATION":69.9993,"RA_OF_ASC_NODE":77.5951,"ARG_OF_PERICENTER":275.7537,"MEAN_ANOMALY":84.3286,"EPHEMERIS_TYPE":0,"CLASSIFICATION_TYPE":"U","NORAD_CAT_ID":55398,"ELEMENT_SET_NO":999,"REV_AT_EPOCH":17127,"BSTAR":-4.5207163e-5,"MEAN_MOTION_DOT":-6.32e-6,"MEAN_MOTION_DDOT":0},{"OBJECT_NAME":"STARLINK-5276","OBJECT_ID":"2023-014J","EPOCH":"2026-03-04T10:56:40.487424","MEAN_MOTION":14.98333062,"ECCENTRICITY":0.00033651,"INCLINATION":69.9991,"RA_OF_ASC_NODE":77.5667,"ARG_OF_PERICENTER":269.0767,"MEAN_ANOMALY":91.0006,"EPHEMERIS_TYPE":0,"CLASSIFICATION_TYPE":"U","NORAD_CAT_ID":55399,"ELEMENT_SET_NO":999,"REV_AT_EPOCH":17127,"BSTAR":4.8317217e-5,"MEAN_MOTION_DOT":4.84e-6,"MEAN_MOTION_DDOT":0},{"OBJECT_NAME":"STARLINK-5632","OBJECT_ID":"2023-014K","EPOCH":"2026-03-04T11:20:43.738944","MEAN_MOTION":14.98328484,"ECCENTRICITY":0.00031965,"INCLINATION":69.9993,"RA_OF_ASC_NODE":77.6202,"ARG_OF_PERICENTER":270.2314,"MEAN_ANOMALY":89.8479,"EPHEMERIS_TYPE":0,"CLASSIFICATION_TYPE":"U","NORAD_CAT_ID":55400,"ELEMENT_SET_NO":999,"REV_AT_EPOCH":17127,"BSTAR":-1.3893296e-5,"MEAN_MOTION_DOT":-2.59e-6,"MEAN_MOTION_DDOT":0},{"OBJECT_NAME":"STARLINK-5076","OBJECT_ID":"2023-014L","EPOCH":"2026-03-04T11:02:40.956000","MEAN_MOTION":14.98333752,"ECCENTRICITY":0.00033663,"INCLINATION":69.999,"RA_OF_ASC_NODE":77.5811,"ARG_OF_PERICENTER":270.0991,"MEAN_ANOMALY":89.9782,"EPHEMERIS_TYPE":0,"CLASSIFICATION_TYPE":"U","NORAD_CAT_ID":55401,"ELEMENT_SET_NO":999,"REV_AT_EPOCH":17127,"BSTAR":9.9650025e-5,"MEAN_MOTION_DOT":1.096e-5,"MEAN_MOTION_DDOT":0},{"OBJECT_NAME":"STARLINK-5071","OBJECT_ID":"2023-014M","EPOCH":"2026-03-04T09:56:36.594816","MEAN_MOTION":14.98331889,"ECCENTRICITY":0.00030664,"INCLINATION":69.9993,"RA_OF_ASC_NODE":77.8235,"ARG_OF_PERICENTER":267.5708,"MEAN_ANOMALY":92.51,"EPHEMERIS_TYPE":0,"CLASSIFICATION_TYPE":"U","NORAD_CAT_ID":55402,"ELEMENT_SET_NO":999,"REV_AT_EPOCH":17126,"BSTAR":7.393443e-6,"MEAN_MOTION_DOT":-5.0e-8,"MEAN_MOTION_DDOT":0},{"OBJECT_NAME":"STARLINK-5597","OBJECT_ID":"2023-014N","EPOCH":"2026-03-04T09:38:34.363104","MEAN_MOTION":14.98335094,"ECCENTRICITY":0.00035161,"INCLINATION":69.9993,"RA_OF_ASC_NODE":77.7787,"ARG_OF_PERICENTER":266.4205,"MEAN_ANOMALY":93.6552,"EPHEMERIS_TYPE":0,"CLASSIFICATION_TYPE":"U","NORAD_CAT_ID":55403,"ELEMENT_SET_NO":999,"REV_AT_EPOCH":17126,"BSTAR":5.2590801e-5,"MEAN_MOTION_DOT":5.35e-6,"MEAN_MOTION_DDOT":0},{"OBJECT_NAME":"STARLINK-5607","OBJECT_ID":"2023-014P","EPOCH":"2026-03-04T10:08:37.879296","MEAN_MOTION":14.98332379,"ECCENTRICITY":0.00036338,"INCLINATION":69.9992,"RA_OF_ASC_NODE":77.8532,"ARG_OF_PERICENTER":269.3655,"MEAN_ANOMALY":90.7088,"EPHEMERIS_TYPE":0,"CLASSIFICATION_TYPE":"U","NORAD_CAT_ID":55404,"ELEMENT_SET_NO":999,"REV_AT_EPOCH":17126,"BSTAR":2.2751989e-5,"MEAN_MOTION_DOT":1.78e-6,"MEAN_MOTION_DDOT":0},{"OBJECT_NAME":"STARLINK-5623","OBJECT_ID":"2023-014Q","EPOCH":"2026-03-04T09:50:35.937024","MEAN_MOTION":14.98329859,"ECCENTRICITY":0.00031585,"INCLINATION":69.9997,"RA_OF_ASC_NODE":77.8088,"ARG_OF_PERICENTER":267.8048,"MEAN_ANOMALY":92.2749,"EPHEMERIS_TYPE":0,"CLASSIFICATION_TYPE":"U","NORAD_CAT_ID":55405,"ELEMENT_SET_NO":999,"REV_AT_EPOCH":17126,"BSTAR":2.789949e-5,"MEAN_MOTION_DOT":2.4e-6,"MEAN_MOTION_DDOT":0},{"OBJECT_NAME":"STARLINK-5630","OBJECT_ID":"2023-014R","EPOCH":"2026-03-04T10:14:38.092128","MEAN_MOTION":14.9833612,"ECCENTRICITY":0.0003183,"INCLINATION":69.9992,"RA_OF_ASC_NODE":77.869,"ARG_OF_PERICENTER":268.6948,"MEAN_ANOMALY":91.3846,"EPHEMERIS_TYPE":0,"CLASSIFICATION_TYPE":"U","NORAD_CAT_ID":55406,"ELEMENT_SET_NO":999,"REV_AT_EPOCH":17126,"BSTAR":4.3135853e-5,"MEAN_MOTION_DOT":4.22e-6,"MEAN_MOTION_DDOT":0},{"OBJECT_NAME":"STARLINK-5019","OBJECT_ID":"2023-014S","EPOCH":"2026-03-04T10:02:37.253472","MEAN_MOTION":14.9831823,"ECCENTRICITY":0.00038194,"INCLINATION":69.9996,"RA_OF_ASC_NODE":77.8377,"ARG_OF_PERICENTER":272.3155,"MEAN_ANOMALY":87.7567,"EPHEMERIS_TYPE":0,"CLASSIFICATION_TYPE":"U","NORAD_CAT_ID":55407,"ELEMENT_SET_NO":999,"REV_AT_EPOCH":17126,"BSTAR":0.00026005433,"MEAN_MOTION_DOT":3.01e-5,"MEAN_MOTION_DDOT":0},{"OBJECT_NAME":"STARLINK-5092","OBJECT_ID":"2023-014T","EPOCH":"2026-03-04T14:00:01.999872","MEAN_MOTION":15.89144164,"ECCENTRICITY":0.00033234,"INCLINATION":69.9983,"RA_OF_ASC_NODE":66.6183,"ARG_OF_PERICENTER":271.6595,"MEAN_ANOMALY":183.9067,"EPHEMERIS_TYPE":0,"CLASSIFICATION_TYPE":"U","NORAD_CAT_ID":55408,"ELEMENT_SET_NO":999,"REV_AT_EPOCH":579,"BSTAR":0.0029918246,"MEAN_MOTION_DOT":0.00958174,"MEAN_MOTION_DDOT":0},{"OBJECT_NAME":"STARLINK-5633","OBJECT_ID":"2023-014V","EPOCH":"2026-03-04T11:09:01.211904","MEAN_MOTION":14.98343678,"ECCENTRICITY":0.00034125,"INCLINATION":69.999,"RA_OF_ASC_NODE":97.4675,"ARG_OF_PERICENTER":265.7237,"MEAN_ANOMALY":94.3532,"EPHEMERIS_TYPE":0,"CLASSIFICATION_TYPE":"U","NORAD_CAT_ID":55410,"ELEMENT_SET_NO":999,"REV_AT_EPOCH":17078,"BSTAR":7.6045927e-5,"MEAN_MOTION_DOT":8.15e-6,"MEAN_MOTION_DDOT":0},{"OBJECT_NAME":"STARLINK-5605","OBJECT_ID":"2023-014W","EPOCH":"2026-03-04T10:26:40.361568","MEAN_MOTION":14.98331262,"ECCENTRICITY":0.00033816,"INCLINATION":69.9992,"RA_OF_ASC_NODE":77.8991,"ARG_OF_PERICENTER":266.8899,"MEAN_ANOMALY":93.1873,"EPHEMERIS_TYPE":0,"CLASSIFICATION_TYPE":"U","NORAD_CAT_ID":55411,"ELEMENT_SET_NO":999,"REV_AT_EPOCH":17126,"BSTAR":0.0001716777,"MEAN_MOTION_DOT":1.956e-5,"MEAN_MOTION_DDOT":0}]
